NORAD_CAT_ID,OBJECT_NAME,OBJECT_TYPE,EPOCH,MEAN_MOTION,ECCENTRICITY,INCLINATION,RA_OF_ASC_NODE,ARG_OF_PERICENTER,MEAN_ANOMALY,BSTAR,MEAN_MOTION_DOT,MEAN_MOTION_DDOT,TLE_LINE0,TLE_LINE1,TLE_LINE2,SEMIMAJOR_AXIS,PERIOD,APOGEE,PERIGEE,DECAYED
54772.0,STARLINK-5452,PAYLOAD,2023-03-15 11:38:24,15.08840767,0.0001617,53.2157,243.3792,77.5246,282.5927,-0.00011201,-2.07e-05,0.0,0 STARLINK-5452,1 54772U 22175Q   23074.48501098 -.00002070  00000-0 -11201-3 0  9992,2 54772  53.2157 243.3792 0001617  77.5246 282.5927 15.08840767 13382,6917.878,95.438,540.862,538.624,0.0
54772.0,STARLINK-5452,PAYLOAD,2023-03-15 13:13:47,15.08844528,0.0001696,53.2127,243.08,89.889,270.2296,-7.7381e-05,-1.52e-05,0.0,0 STARLINK-5452,1 54772U 22175Q   23074.55124644 -.00001520  00000-0 -77381-4 0  9999,2 54772  53.2127 243.0800 0001696  89.8890 270.2296 15.08844528 15557,6917.867,95.437,540.905,538.558,0.0
54772.0,STARLINK-5452,PAYLOAD,2023-03-15 21:10:42,15.0885514,0.0001582,53.2153,241.596,71.3383,288.778,1.2623e-05,-8.7e-07,0.0,0 STARLINK-5452,1 54772U 22175Q   23074.88243490 -.00000087  00000-0  12623-4 0  9990,2 54772  53.2153 241.5960 0001582  71.3383 288.7780 15.08855140 15603,6917.834,95.437,540.794,538.605,0.0
54772.0,STARLINK-5452,PAYLOAD,2023-03-16 11:29:12,15.08839143,0.000113,53.218,238.9199,83.4225,276.6896,-0.00034297,-5.742e-05,0.0,0 STARLINK-5452,1 54772U 22175Q   23075.47861922 -.00005742  00000-0 -34297-3 0  9996,2 54772  53.2180 238.9199 0001130  83.4225 276.6896 15.08839143 13534,6917.883,95.438,540.53,538.966,0.0
54772.0,STARLINK-5452,PAYLOAD,2023-03-16 13:04:35,15.08839367,0.0001147,53.2174,238.6228,83.6361,276.4762,-0.00033315,-5.586e-05,0.0,0 STARLINK-5452,1 54772U 22175Q   23075.54485869 -.00005586  00000-0 -33315-3 0  9992,2 54772  53.2174 238.6228 0001147  83.6361 276.4762 15.08839367 15707,6917.882,95.438,540.541,538.954,0.0
54772.0,STARLINK-5452,PAYLOAD,2023-03-16 19:26:07,15.08842647,0.0001194,53.2183,237.4344,84.2898,275.823,-0.0002796,-4.735e-05,0.0,0 STARLINK-5452,1 54772U 22175Q   23075.80981442 -.00004735  00000-0 -27960-3 0  9993,2 54772  53.2183 237.4344 0001194  84.2898 275.8230 15.08842647 15749,6917.872,95.437,540.563,538.911,0.0
54772.0,STARLINK-5452,PAYLOAD,2023-03-17 03:23:03,15.08843633,0.0001198,53.2186,235.9476,85.1469,274.966,-0.00023762,-4.068e-05,0.0,0 STARLINK-5452,1 54772U 22175Q   23076.14101192 -.00004068  00000-0 -23762-3 0  9992,2 54772  53.2186 235.9476 0001198  85.1469 274.9660 15.08843633 13638,6917.869,95.437,540.563,538.906,0.0
54772.0,STARLINK-5452,PAYLOAD,2023-03-17 14:30:45,15.08839886,0.0001223,53.2185,233.8656,89.1657,270.9476,-6.0403e-05,-1.249e-05,0.0,0 STARLINK-5452,1 54772U 22175Q   23076.60469215 -.00001249  00000-0 -60403-4 0  9998,2 54772  53.2185 233.8656 0001223  89.1657 270.9476 15.08839886 15869,6917.881,95.438,540.592,538.9,0.0
54772.0,STARLINK-5452,PAYLOAD,2023-03-17 17:41:31,15.08844005,9.44e-05,53.2169,233.2697,73.2648,286.8448,-2.1763e-05,-6.34e-06,0.0,0 STARLINK-5452,1 54772U 22175Q   23076.73716826 -.00000634  00000-0 -21763-4 0  9998,2 54772  53.2169 233.2697 0000944  73.2648 286.8448 15.08844005 15889,6917.868,95.437,540.386,539.08,0.0
54772.0,STARLINK-5452,PAYLOAD,2023-03-17 20:52:17,15.08843742,0.0001072,53.2189,232.6761,86.318,273.7935,2.9843e-05,1.87e-06,0.0,0 STARLINK-5452,1 54772U 22175Q   23076.86964675  .00000187  00000-0  29843-4 0  9997,2 54772  53.2189 232.6761 0001072  86.3180 273.7935 15.08843742 13741,6917.869,95.437,540.476,538.992,0.0
54772.0,STARLINK-5452,PAYLOAD,2023-03-18 12:46:09,15.08824456,0.0001022,53.2172,229.7007,89.728,270.383,0.00015278,2.144e-05,0.0,0 STARLINK-5452,1 54772U 22175Q   23077.53205582  .00002144  00000-0  15278-3 0  9998,2 54772  53.2172 229.7007 0001022  89.7280 270.3830 15.08824456 13845,6917.928,95.439,540.5,539.086,0.0
54772.0,STARLINK-5452,PAYLOAD,2023-03-18 19:07:41,15.08843115,0.0001284,53.2186,228.5128,84.871,275.2429,0.00016745,2.378e-05,0.0,0 STARLINK-5452,1 54772U 22175Q   23077.79700530  .00002378  00000-0  16745-3 0  9998,2 54772  53.2186 228.5128 0001284  84.8710 275.2429 15.08843115 13880,6917.871,95.437,540.624,538.848,0.0
54772.0,STARLINK-5452,PAYLOAD,2023-03-19 03:04:38,15.08829432,0.0001589,53.2193,227.0265,78.165,281.9521,2.283e-05,7.5e-07,0.0,0 STARLINK-5452,1 54772U 22175Q   23078.12822081  .00000075  00000-0  22830-4 0  9997,2 54772  53.2193 227.0265 0001589  78.1650 281.9521 15.08829432 13930,6917.913,95.438,540.877,538.678,0.0
54772.0,STARLINK-5452,PAYLOAD,2023-03-19 12:36:57,15.08831363,0.0001406,53.2183,225.2419,79.0064,281.1086,-6.6042e-06,-3.93e-06,0.0,0 STARLINK-5452,1 54772U 22175Q   23078.52566131 -.00000393  00000-0 -66042-5 0  9991,2 54772  53.2183 225.2419 0001406  79.0064 281.1086 15.08831363 16158,6917.907,95.438,540.744,538.799,0.0
54772.0,STARLINK-5452,PAYLOAD,2023-03-19 18:58:29,15.0884149,0.0001253,53.2186,224.052,77.347,282.7662,-1.0015e-05,-4.47e-06,0.0,0 STARLINK-5452,1 54772U 22175Q   23078.79061531 -.00000447  00000-0 -10015-4 0  9992,2 54772  53.2186 224.0520 0001253  77.3470 282.7662 15.08841490 14037,6917.876,95.437,540.608,538.874,0.0
54772.0,STARLINK-5452,PAYLOAD,2023-03-20 09:16:57,15.08842508,0.0001423,53.2184,221.3771,70.5053,289.6093,2.5877e-05,1.24e-06,0.0,0 STARLINK-5452,1 54772U 22175Q   23079.38677339  .00000124  00000-0  25877-4 0  9999,2 54772  53.2184 221.3771 0001423  70.5053 289.6093 15.08842508 16288,6917.873,95.437,540.722,538.753,0.0
54772.0,STARLINK-5452,PAYLOAD,2023-03-20 14:03:06,15.08851524,0.0001296,53.2183,220.4851,75.2095,284.9041,-6.1654e-06,-3.86e-06,0.0,0 STARLINK-5452,1 54772U 22175Q   23079.58548817 -.00000386  00000-0 -61654-5 0  9995,2 54772  53.2183 220.4851 0001296  75.2095 284.9041 15.08851524 14155,6917.845,95.437,540.607,538.814,0.0
54772.0,STARLINK-5452,PAYLOAD,2023-03-20 15:38:29,15.08853439,0.0001273,53.2183,220.1876,78.5529,281.5607,-7.6772e-06,-4.1e-06,0.0,0 STARLINK-5452,1 54772U 22175Q   23079.65172644 -.00000410  00000-0 -76772-5 0  9999,2 54772  53.2183 220.1876 0001273  78.5529 281.5607 15.08853439 16321,6917.839,95.437,540.585,538.824,0.0
54772.0,STARLINK-5452,PAYLOAD,2023-03-20 20:24:37,15.08861087,0.0001319,53.2183,219.2954,76.1955,283.9183,6.7947e-05,7.94e-06,0.0,0 STARLINK-5452,1 54772U 22175Q   23079.85043692  .00000794  00000-0  67947-4 0  9997,2 54772  53.2183 219.2954 0001319  76.1955 283.9183 15.08861087 14191,6917.816,95.436,540.593,538.768,0.0
54772.0,STARLINK-5452,PAYLOAD,2023-03-21 02:46:11,15.08843076,9.88e-05,53.2185,218.1051,89.6463,270.4643,-0.00010074,-1.891e-05,0.0,0 STARLINK-5452,1 54772U 22175Q   23080.11541051 -.00001891  00000-0 -10074-3 0  9999,2 54772  53.2185 218.1051 0000988  89.6463 270.4643 15.08843076 14238,6917.871,95.437,540.419,539.053,0.0
54772.0,STARLINK-5452,PAYLOAD,2023-03-21 12:18:30,15.08832393,0.0001282,53.218,216.3222,73.3146,286.7987,1.9904e-05,2.9e-07,0.0,0 STARLINK-5452,1 54772U 22175Q   23080.51285530  .00000029  00000-0  19904-4 0  9992,2 54772  53.2180 216.3222 0001282  73.3146 286.7987 15.08832393 16456,6917.904,95.438,540.656,538.882,0.0
54772.0,STARLINK-5452,PAYLOAD,2023-03-21 20:15:25,15.08847239,0.0001465,53.2174,214.833,76.1744,283.9411,2.5249e-05,1.14e-06,0.0,0 STARLINK-5452,1 54772U 22175Q   23080.84404500  .00000114  00000-0  25249-4 0  9992,2 54772  53.2174 214.8330 0001465  76.1744 283.9411 15.08847239 16502,6917.858,95.437,540.737,538.71,0.0
54772.0,STARLINK-5452,PAYLOAD,2023-03-22 13:44:40,15.08838086,0.0001441,53.2177,211.5649,70.5601,289.5546,-7.8624e-05,-1.539e-05,0.0,0 STARLINK-5452,1 54772U 22175Q   23081.57269479 -.00001539  00000-0 -78624-4 0  9996,2 54772  53.2177 211.5649 0001441  70.5601 289.5546 15.08838086 14459,6917.886,95.438,540.748,538.754,0.0
54772.0,STARLINK-5452,PAYLOAD,2023-03-22 18:30:48,15.08856482,0.0001098,53.2185,210.6698,95.9529,264.1588,-1.8855e-05,-5.88e-06,0.0,0 STARLINK-5452,1 54772U 22175Q   23081.77139855 -.00000588  00000-0 -18855-4 0  9995,2 54772  53.2185 210.6698 0001098  95.9529 264.1588 15.08856482 14488,6917.83,95.437,540.455,538.935,0.0
54772.0,STARLINK-5452,PAYLOAD,2023-03-23 12:00:04,15.08832613,0.0001278,53.2187,207.4035,84.3865,275.7272,1.7481e-05,-1e-07,0.0,0 STARLINK-5452,1 54772U 22175Q   23082.50005375 -.00000010  00000-0  17481-4 0  9999,2 54772  53.2187 207.4035 0001278  84.3865 275.7272 15.08832613 14594,6917.903,95.438,540.652,538.884,0.0
54772.0,STARLINK-5452,PAYLOAD,2023-03-23 13:35:27,15.08835157,0.0001339,53.2174,207.1031,80.5159,279.5985,1.1964e-05,-9.8e-07,0.0,0 STARLINK-5452,1 54772U 22175Q   23082.56629301 -.00000098  00000-0  11964-4 0  9992,2 54772  53.2174 207.1031 0001339  80.5159 279.5985 15.08835157 16765,6917.895,95.438,540.686,538.834,0.0
54772.0,STARLINK-5452,PAYLOAD,2023-03-24 00:43:08,15.08841895,0.0001247,53.2172,205.0226,79.5045,280.6088,0.00011118,1.482e-05,0.0,0 STARLINK-5452,1 54772U 22175Q   23083.02996308  .00001482  00000-0  11118-3 0  9995,2 54772  53.2172 205.0226 0001247  79.5045 280.6088 15.08841895 14677,6917.875,95.437,540.602,538.877,0.0
54772.0,STARLINK-5452,PAYLOAD,2023-03-24 13:26:14,15.08843837,0.0001559,53.2186,202.6448,93.5394,266.5776,2.113e-05,4.8e-07,0.0,0 STARLINK-5452,1 54772U 22175Q   23083.55988672  .00000048  00000-0  21130-4 0  9991,2 54772  53.2186 202.6448 0001559  93.5394 266.5776 15.08843837 16914,6917.869,95.437,540.812,538.655,0.0
54772.0,STARLINK-5452,PAYLOAD,2023-03-24 15:01:36,15.08854977,0.0001265,53.2182,202.3448,98.1953,261.9183,5.0607e-05,5.18e-06,0.0,0 STARLINK-5452,1 54772U 22175Q   23083.62611686  .00000518  00000-0  50607-4 0  9990,2 54772  53.2182 202.3448 0001265  98.1953 261.9183 15.08854977 14762,6917.835,95.437,540.575,538.825,0.0
54772.0,STARLINK-5452,PAYLOAD,2023-03-24 16:36:58,15.08861948,0.0001088,53.2185,202.049,100.1875,259.924,0.00011462,1.538e-05,0.0,0 STARLINK-5452,1 54772U 22175Q   23083.69234950  .00001538  00000-0  11462-3 0  9990,2 54772  53.2185 202.0490 0001088 100.1875 259.9240 15.08861948 14777,6917.813,95.436,540.431,538.926,0.0
